SL-14 R/B               
1 16792U 86046B   26056.14452717  .00000374  00000+0  40297-4 0  9998
2 16792  82.4790  92.0390 0021536 269.4433  90.4315 14.85576267124547
SL-14 R/B               
1 16882U 86055B   26056.27450023  .00000444  00000+0  48357-4 0  9993
2 16882  82.5224 138.3416 0019277  17.9167  39.3473 14.85629241117520
AJISAI (EGS)            
1 16908U 86061A   26056.26251436 -.00000105  00000+0 -54079-4 0  9999
2 16908  50.0085 131.5623 0011236 254.9873 150.1236 12.44515453466453
COSMOS 1812             
1 17295U 87003A   26056.23839556  .00735827  29034-3  82442-3 0  9998
2 17295  82.4736 209.8870 0005227 289.5758  70.4960 16.09433252142479
SL-14 R/B               
1 17567U 87024B   26056.18250901  .00000366  00000+0  38898-4 0  9996
2 17567  82.5264 104.5214 0016897 305.0434  54.9196 14.86118590 86272
COSMOS 1833             
1 17589U 87027A   26056.25973354 -.00000100  00000+0 -27669-4 0  9997
2 17589  70.9234 352.1408 0024747 231.5493 128.3408 14.13056932  8560
SL-16 R/B               
1 17590U 87027B   26056.12825166  .00000039  00000+0  43338-4 0  9992
2 17590  71.0032 302.9665 0004069 166.9406 193.1824 14.17167113 13564
SL-14 R/B               
1 17912U 87038B   26056.17103973  .00000391  00000+0  42555-4 0  9993
2 17912  82.5024 308.6001 0018581 201.8303 158.2123 14.85356208 77379
COSMOS 1844             
1 17973U 87041A   26056.23738215  .00000049  00000+0  50395-4 0  9995
2 17973  70.8987  60.4407 0029362  37.1711 323.1436 14.14552640  1826
SL-14 R/B               
1 18153U 87055B   26056.28489743  .00000555  00000+0  61057-4 0  9994
2 18153  82.5022   0.7191 0022035  56.9977 303.3353 14.85611658 68090
COSMOS 1867             
1 18187U 87060A   26056.14562769 -.00000018  00000+0  31023-4 0  9997
2 18187  65.0126 341.8335 0014299 277.8495  82.0966 14.31500809 18147
SL-14 R/B               
1 18749U 88001B   26055.87516873  .00000510  00000+0  56240-4 0  9995
2 18749  82.5131 207.4110 0016601 281.7650  78.1703 14.85509305 40122
