CCSDS_OMM_VERS = 2.0
CREATION_DATE  = 
ORIGINATOR     = 

OBJECT_NAME    = SL-14 R/B
OBJECT_ID      = 1986-046B
CENTER_NAME    = EARTH
REF_FRAME      = TEME
TIME_SYSTEM    = UTC
MEAN_ELEMENT_THEORY = SGP/SGP4

EPOCH          = 2026-02-25T03:28:07.147488
MEAN_MOTION    = 14.85576267
ECCENTRICITY   = .00215369
INCLINATION    = 82.4790
RA_OF_ASC_NODE = 92.0390
ARG_OF_PERICENTER = 269.4433
MEAN_ANOMALY   = 90.4315

EPHEMERIS_TYPE = 0
CLASSIFICATION_TYPE = U
NORAD_CAT_ID   = 16792
ELEMENT_SET_NO = 999
REV_AT_EPOCH   = 12454
BSTAR          = .40297197E-4
MEAN_MOTION_DOT = .374E-5
MEAN_MOTION_DDOT = 0

CCSDS_OMM_VERS = 2.0
CREATION_DATE  = 
ORIGINATOR     = 

OBJECT_NAME    = SL-14 R/B
OBJECT_ID      = 1986-055B
CENTER_NAME    = EARTH
REF_FRAME      = TEME
TIME_SYSTEM    = UTC
MEAN_ELEMENT_THEORY = SGP/SGP4

EPOCH          = 2026-02-25T06:35:16.819872
MEAN_MOTION    = 14.85629241
ECCENTRICITY   = .00192778
INCLINATION    = 82.5224
RA_OF_ASC_NODE = 138.3416
ARG_OF_PERICENTER = 17.9167
MEAN_ANOMALY   = 39.3473

EPHEMERIS_TYPE = 0
CLASSIFICATION_TYPE = U
NORAD_CAT_ID   = 16882
ELEMENT_SET_NO = 999
REV_AT_EPOCH   = 11752
BSTAR          = .48356902E-4
MEAN_MOTION_DOT = .444E-5
MEAN_MOTION_DDOT = 0

CCSDS_OMM_VERS = 2.0
CREATION_DATE  = 
ORIGINATOR     = 

OBJECT_NAME    = AJISAI (EGS)
OBJECT_ID      = 1986-061A
CENTER_NAME    = EARTH
REF_FRAME      = TEME
TIME_SYSTEM    = UTC
MEAN_ELEMENT_THEORY = SGP/SGP4

EPOCH          = 2026-02-25T06:18:01.240704
MEAN_MOTION    = 12.44515453
ECCENTRICITY   = .00112363
INCLINATION    = 50.0085
RA_OF_ASC_NODE = 131.5623
ARG_OF_PERICENTER = 254.9873
MEAN_ANOMALY   = 150.1236

EPHEMERIS_TYPE = 0
CLASSIFICATION_TYPE = U
NORAD_CAT_ID   = 16908
ELEMENT_SET_NO = 999
REV_AT_EPOCH   = 46645
BSTAR          = -.54079454E-4
MEAN_MOTION_DOT = -.105E-5
MEAN_MOTION_DDOT = 0

CCSDS_OMM_VERS = 2.0
CREATION_DATE  = 
ORIGINATOR     = 

OBJECT_NAME    = COSMOS 1812
OBJECT_ID      = 1987-003A
CENTER_NAME    = EARTH
REF_FRAME      = TEME
TIME_SYSTEM    = UTC
MEAN_ELEMENT_THEORY = SGP/SGP4

EPOCH          = 2026-02-25T05:43:17.376384
MEAN_MOTION    = 16.09433252
ECCENTRICITY   = .00052277
INCLINATION    = 82.4736
RA_OF_ASC_NODE = 209.8870
ARG_OF_PERICENTER = 289.5758
MEAN_ANOMALY   = 70.4960

EPHEMERIS_TYPE = 0
CLASSIFICATION_TYPE = U
NORAD_CAT_ID   = 17295
ELEMENT_SET_NO = 999
REV_AT_EPOCH   = 14247
BSTAR          = .82441916E-3
MEAN_MOTION_DOT = .735827E-2
MEAN_MOTION_DDOT = .29034262E-3

CCSDS_OMM_VERS = 2.0
CREATION_DATE  = 
ORIGINATOR     = 

OBJECT_NAME    = SL-14 R/B
OBJECT_ID      = 1987-024B
CENTER_NAME    = EARTH
REF_FRAME      = TEME
TIME_SYSTEM    = UTC
MEAN_ELEMENT_THEORY = SGP/SGP4

EPOCH          = 2026-02-25T04:22:48.778464
MEAN_MOTION    = 14.86118590
ECCENTRICITY   = .0016897
INCLINATION    = 82.5264
RA_OF_ASC_NODE = 104.5214
ARG_OF_PERICENTER = 305.0434
MEAN_ANOMALY   = 54.9196

EPHEMERIS_TYPE = 0
CLASSIFICATION_TYPE = U
NORAD_CAT_ID   = 17567
ELEMENT_SET_NO = 999
REV_AT_EPOCH   = 8627
BSTAR          = .388979E-4
MEAN_MOTION_DOT = .366E-5
MEAN_MOTION_DDOT = 0

CCSDS_OMM_VERS = 2.0
CREATION_DATE  = 
ORIGINATOR     = 

OBJECT_NAME    = COSMOS 1833
OBJECT_ID      = 1987-027A
CENTER_NAME    = EARTH
REF_FRAME      = TEME
TIME_SYSTEM    = UTC
MEAN_ELEMENT_THEORY = SGP/SGP4

EPOCH          = 2026-02-25T06:14:00.977856
MEAN_MOTION    = 14.13056932
ECCENTRICITY   = .0024747
INCLINATION    = 70.9234
RA_OF_ASC_NODE = 352.1408
ARG_OF_PERICENTER = 231.5493
MEAN_ANOMALY   = 128.3408

EPHEMERIS_TYPE = 0
CLASSIFICATION_TYPE = U
NORAD_CAT_ID   = 17589
ELEMENT_SET_NO = 999
REV_AT_EPOCH   = 856
BSTAR          = -.27668531E-4
MEAN_MOTION_DOT = -.1E-5
MEAN_MOTION_DDOT = 0

CCSDS_OMM_VERS = 2.0
CREATION_DATE  = 
ORIGINATOR     = 

OBJECT_NAME    = SL-16 R/B
OBJECT_ID      = 1987-027B
CENTER_NAME    = EARTH
REF_FRAME      = TEME
TIME_SYSTEM    = UTC
MEAN_ELEMENT_THEORY = SGP/SGP4

EPOCH          = 2026-02-25T03:04:40.943424
MEAN_MOTION    = 14.17167113
ECCENTRICITY   = .00040694
INCLINATION    = 71.0032
RA_OF_ASC_NODE = 302.9665
ARG_OF_PERICENTER = 166.9406
MEAN_ANOMALY   = 193.1824

EPHEMERIS_TYPE = 0
CLASSIFICATION_TYPE = U
NORAD_CAT_ID   = 17590
ELEMENT_SET_NO = 999
REV_AT_EPOCH   = 1356
BSTAR          = .43338206E-4
MEAN_MOTION_DOT = .39E-6
MEAN_MOTION_DDOT = 0

CCSDS_OMM_VERS = 2.0
CREATION_DATE  = 
ORIGINATOR     = 

OBJECT_NAME    = SL-14 R/B
OBJECT_ID      = 1987-038B
CENTER_NAME    = EARTH
REF_FRAME      = TEME
TIME_SYSTEM    = UTC
MEAN_ELEMENT_THEORY = SGP/SGP4

EPOCH          = 2026-02-25T04:06:17.832672
MEAN_MOTION    = 14.85356208
ECCENTRICITY   = .00185813
INCLINATION    = 82.5024
RA_OF_ASC_NODE = 308.6001
ARG_OF_PERICENTER = 201.8303
MEAN_ANOMALY   = 158.2123

EPHEMERIS_TYPE = 0
CLASSIFICATION_TYPE = U
NORAD_CAT_ID   = 17912
ELEMENT_SET_NO = 999
REV_AT_EPOCH   = 7737
BSTAR          = .42555072E-4
MEAN_MOTION_DOT = .391E-5
MEAN_MOTION_DDOT = 0

CCSDS_OMM_VERS = 2.0
CREATION_DATE  = 
ORIGINATOR     = 

OBJECT_NAME    = COSMOS 1844
OBJECT_ID      = 1987-041A
CENTER_NAME    = EARTH
REF_FRAME      = TEME
TIME_SYSTEM    = UTC
MEAN_ELEMENT_THEORY = SGP/SGP4

EPOCH          = 2026-02-25T05:41:49.817760
MEAN_MOTION    = 14.14552640
ECCENTRICITY   = .00293627
INCLINATION    = 70.8987
RA_OF_ASC_NODE = 60.4407
ARG_OF_PERICENTER = 37.1711
MEAN_ANOMALY   = 323.1436

EPHEMERIS_TYPE = 0
CLASSIFICATION_TYPE = U
NORAD_CAT_ID   = 17973
ELEMENT_SET_NO = 999
REV_AT_EPOCH   = 182
BSTAR          = .5039478E-4
MEAN_MOTION_DOT = .49E-6
MEAN_MOTION_DDOT = 0

CCSDS_OMM_VERS = 2.0
CREATION_DATE  = 
ORIGINATOR     = 

OBJECT_NAME    = SL-14 R/B
OBJECT_ID      = 1987-055B
CENTER_NAME    = EARTH
REF_FRAME      = TEME
TIME_SYSTEM    = UTC
MEAN_ELEMENT_THEORY = SGP/SGP4

EPOCH          = 2026-02-25T06:50:15.137952
MEAN_MOTION    = 14.85611658
ECCENTRICITY   = .00220352
INCLINATION    = 82.5022
RA_OF_ASC_NODE = 0.7191
ARG_OF_PERICENTER = 56.9977
MEAN_ANOMALY   = 303.3353

EPHEMERIS_TYPE = 0
CLASSIFICATION_TYPE = U
NORAD_CAT_ID   = 18153
ELEMENT_SET_NO = 999
REV_AT_EPOCH   = 6809
BSTAR          = .61057361E-4
MEAN_MOTION_DOT = .555E-5
MEAN_MOTION_DDOT = 0

CCSDS_OMM_VERS = 2.0
CREATION_DATE  = 
ORIGINATOR     = 

OBJECT_NAME    = COSMOS 1867
OBJECT_ID      = 1987-060A
CENTER_NAME    = EARTH
REF_FRAME      = TEME
TIME_SYSTEM    = UTC
MEAN_ELEMENT_THEORY = SGP/SGP4

EPOCH          = 2026-02-25T03:29:42.232416
MEAN_MOTION    = 14.31500809
ECCENTRICITY   = .00142991
INCLINATION    = 65.0126
RA_OF_ASC_NODE = 341.8335
ARG_OF_PERICENTER = 277.8495
MEAN_ANOMALY   = 82.0966

EPHEMERIS_TYPE = 0
CLASSIFICATION_TYPE = U
NORAD_CAT_ID   = 18187
ELEMENT_SET_NO = 999
REV_AT_EPOCH   = 1814
BSTAR          = .31023216E-4
MEAN_MOTION_DOT = -.18E-6
MEAN_MOTION_DDOT = 0

CCSDS_OMM_VERS = 2.0
CREATION_DATE  = 
ORIGINATOR     = 

OBJECT_NAME    = SL-14 R/B
OBJECT_ID      = 1988-001B
CENTER_NAME    = EARTH
REF_FRAME      = TEME
TIME_SYSTEM    = UTC
MEAN_ELEMENT_THEORY = SGP/SGP4

EPOCH          = 2026-02-24T21:00:14.578272
MEAN_MOTION    = 14.85509305
ECCENTRICITY   = .0016601
INCLINATION    = 82.5131
RA_OF_ASC_NODE = 207.4110
ARG_OF_PERICENTER = 281.7650
MEAN_ANOMALY   = 78.1703

EPHEMERIS_TYPE = 0
CLASSIFICATION_TYPE = U
NORAD_CAT_ID   = 18749
ELEMENT_SET_NO = 999
REV_AT_EPOCH   = 4012
BSTAR          = .5624E-4
MEAN_MOTION_DOT = .51E-5
MEAN_MOTION_DDOT = 0

